CCSDS_OMM_VERS = 2.0
CREATION_DATE  = 
ORIGINATOR     = 

OBJECT_NAME    = SL-16 R/B
OBJECT_ID      = 1992-093B
CENTER_NAME    = EARTH
REF_FRAME      = TEME
TIME_SYSTEM    = UTC
MEAN_ELEMENT_THEORY = SGP/SGP4

EPOCH          = 2025-11-07T19:58:48.037152
MEAN_MOTION    = 14.15419938
ECCENTRICITY   = .0003137
INCLINATION    = 71.0205
RA_OF_ASC_NODE = 260.0698
ARG_OF_PERICENTER = 163.2654
MEAN_ANOMALY   = 196.8573

EPHEMERIS_TYPE = 0
CLASSIFICATION_TYPE = U
NORAD_CAT_ID   = 22285
ELEMENT_SET_NO = 999
REV_AT_EPOCH   = 69591
BSTAR          = .17778E-3
MEAN_MOTION_DOT = .299E-5
MEAN_MOTION_DDOT = 0

CCSDS_OMM_VERS = 2.0
CREATION_DATE  = 
ORIGINATOR     = 

OBJECT_NAME    = COSMOS 2228
OBJECT_ID      = 1992-094A
CENTER_NAME    = EARTH
REF_FRAME      = TEME
TIME_SYSTEM    = UTC
MEAN_ELEMENT_THEORY = SGP/SGP4

EPOCH          = 2025-11-07T18:57:11.935008
MEAN_MOTION    = 14.96489715
ECCENTRICITY   = .001791
INCLINATION    = 82.5191
RA_OF_ASC_NODE = 353.9717
ARG_OF_PERICENTER = 357.6687
MEAN_ANOMALY   = 2.4448

EPHEMERIS_TYPE = 0
CLASSIFICATION_TYPE = U
NORAD_CAT_ID   = 22286
ELEMENT_SET_NO = 999
REV_AT_EPOCH   = 75782
BSTAR          = .34506E-3
MEAN_MOTION_DOT = .3955E-4
MEAN_MOTION_DDOT = 0

CCSDS_OMM_VERS = 2.0
CREATION_DATE  = 
ORIGINATOR     = 

OBJECT_NAME    = SL-16 R/B
OBJECT_ID      = 1993-016B
CENTER_NAME    = EARTH
REF_FRAME      = TEME
TIME_SYSTEM    = UTC
MEAN_ELEMENT_THEORY = SGP/SGP4

EPOCH          = 2025-11-07T10:28:51.742272
MEAN_MOTION    = 14.15278218
ECCENTRICITY   = .0009358
INCLINATION    = 71.0046
RA_OF_ASC_NODE = 111.9467
ARG_OF_PERICENTER = 161.5926
MEAN_ANOMALY   = 198.5537

EPHEMERIS_TYPE = 0
CLASSIFICATION_TYPE = U
NORAD_CAT_ID   = 22566
ELEMENT_SET_NO = 999
REV_AT_EPOCH   = 68487
BSTAR          = -.92597E-5
MEAN_MOTION_DOT = -.66E-6
MEAN_MOTION_DDOT = 0

CCSDS_OMM_VERS = 2.0
CREATION_DATE  = 
ORIGINATOR     = 

OBJECT_NAME    = COSMOS 2242
OBJECT_ID      = 1993-024A
CENTER_NAME    = EARTH
REF_FRAME      = TEME
TIME_SYSTEM    = UTC
MEAN_ELEMENT_THEORY = SGP/SGP4

EPOCH          = 2025-11-07T15:41:50.934336
MEAN_MOTION    = 14.95888011
ECCENTRICITY   = .0016325
INCLINATION    = 82.5220
RA_OF_ASC_NODE = 23.3704
ARG_OF_PERICENTER = 1.1026
MEAN_ANOMALY   = 359.0229

EPHEMERIS_TYPE = 0
CLASSIFICATION_TYPE = U
NORAD_CAT_ID   = 22626
ELEMENT_SET_NO = 999
REV_AT_EPOCH   = 76214
BSTAR          = .27987E-3
MEAN_MOTION_DOT = .3162E-4
MEAN_MOTION_DDOT = 0

CCSDS_OMM_VERS = 2.0
CREATION_DATE  = 
ORIGINATOR     = 

OBJECT_NAME    = SL-16 R/B
OBJECT_ID      = 1993-059B
CENTER_NAME    = EARTH
REF_FRAME      = TEME
TIME_SYSTEM    = UTC
MEAN_ELEMENT_THEORY = SGP/SGP4

EPOCH          = 2025-11-07T20:44:52.584864
MEAN_MOTION    = 14.17202435
ECCENTRICITY   = .0015862
INCLINATION    = 70.9891
RA_OF_ASC_NODE = 268.0261
ARG_OF_PERICENTER = 28.9610
MEAN_ANOMALY   = 331.2390

EPHEMERIS_TYPE = 0
CLASSIFICATION_TYPE = U
NORAD_CAT_ID   = 22803
ELEMENT_SET_NO = 999
REV_AT_EPOCH   = 66227
BSTAR          = .66114E-4
MEAN_MOTION_DOT = .86E-6
MEAN_MOTION_DDOT = 0

CCSDS_OMM_VERS = 2.0
CREATION_DATE  = 
ORIGINATOR     = 

OBJECT_NAME    = ARIANE 40 R/B
OBJECT_ID      = 1993-061H
CENTER_NAME    = EARTH
REF_FRAME      = TEME
TIME_SYSTEM    = UTC
MEAN_ELEMENT_THEORY = SGP/SGP4

EPOCH          = 2025-11-07T15:09:04.814208
MEAN_MOTION    = 14.32767266
ECCENTRICITY   = .0009619
INCLINATION    = 98.5119
RA_OF_ASC_NODE = 17.7932
ARG_OF_PERICENTER = 286.9126
MEAN_ANOMALY   = 73.1004

EPHEMERIS_TYPE = 0
CLASSIFICATION_TYPE = U
NORAD_CAT_ID   = 22830
ELEMENT_SET_NO = 999
REV_AT_EPOCH   = 67662
BSTAR          = .16429E-3
MEAN_MOTION_DOT = .404E-5
MEAN_MOTION_DDOT = 0

CCSDS_OMM_VERS = 2.0
CREATION_DATE  = 
ORIGINATOR     = 

OBJECT_NAME    = COSMOS 2278
OBJECT_ID      = 1994-023A
CENTER_NAME    = EARTH
REF_FRAME      = TEME
TIME_SYSTEM    = UTC
MEAN_ELEMENT_THEORY = SGP/SGP4

EPOCH          = 2025-11-07T17:44:14.013312
MEAN_MOTION    = 14.14333200
ECCENTRICITY   = .0010249
INCLINATION    = 71.0527
RA_OF_ASC_NODE = 70.2333
ARG_OF_PERICENTER = 224.3213
MEAN_ANOMALY   = 135.7089

EPHEMERIS_TYPE = 0
CLASSIFICATION_TYPE = U
NORAD_CAT_ID   = 23087
ELEMENT_SET_NO = 999
REV_AT_EPOCH   = 62756
BSTAR          = .15841E-3
MEAN_MOTION_DOT = .256E-5
MEAN_MOTION_DDOT = 0

CCSDS_OMM_VERS = 2.0
CREATION_DATE  = 
ORIGINATOR     = 

OBJECT_NAME    = SL-16 R/B
OBJECT_ID      = 1994-023B
CENTER_NAME    = EARTH
REF_FRAME      = TEME
TIME_SYSTEM    = UTC
MEAN_ELEMENT_THEORY = SGP/SGP4

EPOCH          = 2025-11-07T11:42:29.613600
MEAN_MOTION    = 14.14993144
ECCENTRICITY   = .000167
INCLINATION    = 71.0004
RA_OF_ASC_NODE = 327.5187
ARG_OF_PERICENTER = 173.9042
MEAN_ANOMALY   = 186.2101

EPHEMERIS_TYPE = 0
CLASSIFICATION_TYPE = U
NORAD_CAT_ID   = 23088
ELEMENT_SET_NO = 999
REV_AT_EPOCH   = 62880
BSTAR          = -.23972E-4
MEAN_MOTION_DOT = -.94E-6
MEAN_MOTION_DDOT = 0

CCSDS_OMM_VERS = 2.0
CREATION_DATE  = 
ORIGINATOR     = 

OBJECT_NAME    = SL-16 R/B
OBJECT_ID      = 1994-074B
CENTER_NAME    = EARTH
REF_FRAME      = TEME
TIME_SYSTEM    = UTC
MEAN_ELEMENT_THEORY = SGP/SGP4

EPOCH          = 2025-11-07T20:38:09.229056
MEAN_MOTION    = 14.79227466
ECCENTRICITY   = .0005152
INCLINATION    = 97.7249
RA_OF_ASC_NODE = 342.5432
ARG_OF_PERICENTER = 255.0002
MEAN_ANOMALY   = 277.7788

EPHEMERIS_TYPE = 0
CLASSIFICATION_TYPE = U
NORAD_CAT_ID   = 23343
ELEMENT_SET_NO = 999
REV_AT_EPOCH   = 66923
BSTAR          = .1125E-3
MEAN_MOTION_DOT = .786E-5
MEAN_MOTION_DDOT = 0

CCSDS_OMM_VERS = 2.0
CREATION_DATE  = 
ORIGINATOR     = 

OBJECT_NAME    = SL-16 R/B
OBJECT_ID      = 1994-077B
CENTER_NAME    = EARTH
REF_FRAME      = TEME
TIME_SYSTEM    = UTC
MEAN_ELEMENT_THEORY = SGP/SGP4

EPOCH          = 2025-11-07T19:11:41.148384
MEAN_MOTION    = 14.15540760
ECCENTRICITY   = .0003672
INCLINATION    = 70.9820
RA_OF_ASC_NODE = 248.9153
ARG_OF_PERICENTER = 312.4881
MEAN_ANOMALY   = 47.5931

EPHEMERIS_TYPE = 0
CLASSIFICATION_TYPE = U
NORAD_CAT_ID   = 23405
ELEMENT_SET_NO = 999
REV_AT_EPOCH   = 59898
BSTAR          = .18646E-3
MEAN_MOTION_DOT = .317E-5
MEAN_MOTION_DDOT = 0

CCSDS_OMM_VERS = 2.0
CREATION_DATE  = 
ORIGINATOR     = 

OBJECT_NAME    = ARIANE 40+ R/B
OBJECT_ID      = 1995-021B
CENTER_NAME    = EARTH
REF_FRAME      = TEME
TIME_SYSTEM    = UTC
MEAN_ELEMENT_THEORY = SGP/SGP4

EPOCH          = 2025-11-07T15:45:55.258848
MEAN_MOTION    = 14.39652820
ECCENTRICITY   = .0007522
INCLINATION    = 98.4691
RA_OF_ASC_NODE = 19.6629
ARG_OF_PERICENTER = 141.0375
MEAN_ANOMALY   = 13.0410

EPHEMERIS_TYPE = 0
CLASSIFICATION_TYPE = U
NORAD_CAT_ID   = 23561
ELEMENT_SET_NO = 999
REV_AT_EPOCH   = 60168
BSTAR          = .18733E-3
MEAN_MOTION_DOT = .542E-5
MEAN_MOTION_DDOT = 0

CCSDS_OMM_VERS = 2.0
CREATION_DATE  = 
ORIGINATOR     = 

OBJECT_NAME    = SL-16 R/B
OBJECT_ID      = 1995-058B
CENTER_NAME    = EARTH
REF_FRAME      = TEME
TIME_SYSTEM    = UTC
MEAN_ELEMENT_THEORY = SGP/SGP4

EPOCH          = 2025-11-07T17:31:16.051296
MEAN_MOTION    = 14.15475513
ECCENTRICITY   = .0014587
INCLINATION    = 71.0215
RA_OF_ASC_NODE = 76.3031
ARG_OF_PERICENTER = 300.6448
MEAN_ANOMALY   = 59.3236

EPHEMERIS_TYPE = 0
CLASSIFICATION_TYPE = U
NORAD_CAT_ID   = 23705
ELEMENT_SET_NO = 999
REV_AT_EPOCH   = 55059
BSTAR          = .99133E-4
MEAN_MOTION_DOT = .146E-5
MEAN_MOTION_DDOT = 0

