SL-16 R/B               
1 22285U 92093B   25311.83250043  .00000299  00000+0  17778-3 0  9991
2 22285  71.0205 260.0698 0003137 163.2654 196.8573 14.15419938695912
COSMOS 2228             
1 22286U 92094A   25311.78972147  .00003955  00000+0  34506-3 0  9993
2 22286  82.5191 353.9717 0017910 357.6687   2.4448 14.96489715757828
SL-16 R/B               
1 22566U 93016B   25311.43670998 -.00000066  00000+0 -92597-5 0  9998
2 22566  71.0046 111.9467 0009358 161.5926 198.5537 14.15278218684875
COSMOS 2242             
1 22626U 93024A   25311.65406174  .00003162  00000+0  27987-3 0  9998
2 22626  82.5220  23.3704 0016325   1.1026 359.0229 14.95888011762140
SL-16 R/B               
1 22803U 93059B   25311.86449751  .00000086  00000+0  66114-4 0  9992
2 22803  70.9891 268.0261 0015862  28.9610 331.2390 14.17202435662277
ARIANE 40 R/B           
1 22830U 93061H   25311.63130572  .00000404  00000+0  16429-3 0  9995
2 22830  98.5119  17.7932 0009619 286.9126  73.1004 14.32767266676624
COSMOS 2278             
1 23087U 94023A   25311.73905108  .00000256  00000+0  15841-3 0  9997
2 23087  71.0527  70.2333 0010249 224.3213 135.7089 14.14333200627565
SL-16 R/B               
1 23088U 94023B   25311.48784275 -.00000094  00000+0 -23972-4 0  9997
2 23088  71.0004 327.5187 0001670 173.9042 186.2101 14.14993144628801
SL-16 R/B               
1 23343U 94074B   25311.85982904  .00000786  00000+0  11250-3 0  9998
2 23343  97.7249 342.5432 0005152 255.0002 277.7788 14.79227466669235
SL-16 R/B               
1 23405U 94077B   25311.79978181  .00000317  00000+0  18646-3 0  9991
2 23405  70.9820 248.9153 0003672 312.4881  47.5931 14.15540760598980
ARIANE 40+ R/B          
1 23561U 95021B   25311.65688957  .00000542  00000+0  18733-3 0  9995
2 23561  98.4691  19.6629 0007522 141.0375  13.0410 14.39652820601686
SL-16 R/B               
1 23705U 95058B   25311.73004689  .00000146  00000+0  99133-4 0  9992
2 23705  71.0215  76.3031 0014587 300.6448  59.3236 14.15475513550593
